[Satellite]
VERSION=1.1
NAME=INTELSAT 31 (IS-31)
NICKNAME=INTELSAT 31 (IS-31)
TLE1=1 41581U 16035A   17184.48152806 -.00000159  00000-0  00000-0 0  9995
TLE2=2 41581   0.0286 261.5200 0001234 318.2340 140.2273  1.00272756  3905
